[ {"name": "STARLINK-6096", "line1": "1 56103U 23046L   26127.86286822  .00011502  00000+0  42754-3 0  9993", "line2": "2 56103  43.0031 187.1725 0000060 270.2115  89.8729 15.27523778171080"}, {"name": "STARLINK-6062", "line1": "1 56104U 23046M   26127.85897559  .00047466  00000+0  17368-2 0  9998", "line2": "2 56104  43.0047 187.1412 0001138 271.4187  88.6535 15.27324808171085"}, {"name": "STARLINK-6066", "line1": "1 56105U 23046N   26127.56498740 -.02005922  00000+0 -85959-1 0  9991", "line2": "2 56105  42.9971 189.5205 0021584 162.2750 197.8856 15.21245606171032"}, {"name": "STARLINK-6030", "line1": "1 56107U 23046Q   26127.51036130  .00000372  00000+0  23043-4 0  9998", "line2": "2 56107  43.0027 189.6736 0001296 268.3240  91.7463 15.27578922171029"}, {"name": "STARLINK-6081", "line1": "1 56108U 23046R   26127.87314653  .00001945  00000+0  80213-4 0  9996", "line2": "2 56108  43.0025 187.2471 0002616 289.5464  70.5105 15.27570619171087"}, {"name": "STARLINK-6083", "line1": "1 56109U 23046S   26127.57189989 -.00000343  00000+0 -29168-5 0  9992", "line2": "2 56109  43.0038 189.2784 0002082 277.0728  82.9887 15.27573237171031"}, {"name": "STARLINK-6082", "line1": "1 56110U 23046T   26127.89240089  .00002820  00000+0  11196-3 0  9998", "line2": "2 56110  43.0015 187.3891 0001688 278.7438  81.3222 15.27577847171085"}, {"name": "STARLINK-6084", "line1": "1 56111U 23046U   26127.84886081 -.00000510  00000+0 -89984-5 0  9990", "line2": "2 56111  43.0023 187.9076 0001343 266.5370  93.5328 15.27577264171078"}, {"name": "STARLINK-6080", "line1": "1 56112U 23046V   26127.56851472 -.00000495  00000+0 -87442-5 0  9995", "line2": "2 56112  43.0038 189.2590 0002172 279.8169  80.2437 15.26741941171039"}, {"name": "STARLINK-6113", "line1": "1 56113U 23046W   26127.85258574 -.00000277  00000+0 -53504-6 0  9993", "line2": "2 56113  43.0040 187.0869 0001285 278.4515  81.6191 15.27575652171084"}, {"name": "STARLINK-6101", "line1": "1 56115U 23046Y   26127.56724831  .00000189  00000+0  16381-4 0  9997", "line2": "2 56115  43.0050 185.8333 0001415 263.2492  96.8198 15.27578426171076"}, {"name": "STARLINK-6114", "line1": "1 56116U 23046Z   26127.18773926  .00000475  00000+0  28011-4 0  9996", "line2": "2 56116  43.0054 191.5689 0001972 284.9713  75.0919 15.25907516170975"}, {"name": "STARLINK-6107", "line1": "1 56117U 23046AA  26127.83138569 -.00000883  00000+0 -22580-4 0  9997", "line2": "2 56117  43.0015 173.1202 0001387 277.5391  82.5303 15.27575400171246"}, {"name": "STARLINK-6091", "line1": "1 56119U 23046AC  26127.84552667  .00001085  00000+0  48984-4 0  9998", "line2": "2 56119  43.0055 173.2259 0001595 279.0923  80.9748 15.27553930171243"}, {"name": "STARLINK-6079", "line1": "1 56120U 23046AD  26127.84166304 -.00000378  00000+0 -42235-5 0  9999", "line2": "2 56120  43.0014 173.1924 0001321 286.7255  73.3452 15.27573558171244"}, {"name": "STARLINK-6092", "line1": "1 56121U 23046AE  26127.83781069 -.00001327  00000+0 -38692-4 0  9996", "line2": "2 56121  43.0016 173.1653 0001801 278.9068  81.1579 15.27575857171245"}, {"name": "STARLINK-6094", "line1": "1 56122U 23046AF  26127.50571375 -.00006458  00000+0 -22513-3 0  9992", "line2": "2 56122  43.0014 186.2307 0001711 262.6409  97.4248 15.27610262171067"}, {"name": "STARLINK-6115", "line1": "1 56123U 23046AH  26127.53272275 -.00000201  00000+0  22162-5 0  9994", "line2": "2 56123  43.0035 175.1645 0001644 268.7654  91.3009 15.27574024171194"}, {"name": "STARLINK-6126", "line1": "1 56124U 23046AJ  26127.83295281 -.00002610  00000+0 -87618-4 0  9993", "line2": "2 56124  43.0008 173.1285 0001274 288.3219  71.7494 15.26756248171242"}, {"name": "STARLINK-6119", "line1": "1 56125U 23046AK  26127.85579381  .00000438  00000+0  25438-4 0  9998", "line2": "2 56125  43.0039 173.2925 0001703 275.7047  84.3611 15.27574991171240"}, {"name": "STARLINK-6124", "line1": "1 56126U 23046AL  26127.82109899 -.00002038  00000+0 -64540-4 0  9996", "line2": "2 56126  43.0022 173.0342 0001547 281.7050  78.3628 15.27581736171247"}, {"name": "STARLINK-6104", "line1": "1 56127U 23046AM  26127.53642759  .00000016  00000+0  10446-4 0  9990", "line2": "2 56127  43.0054 177.7521 0001628 291.4160  68.6517 15.25906626171160"}, {"name": "STARLINK-6122", "line1": "1 56128U 23046AN  26127.85195209  .00000152  00000+0  15050-4 0  9996", "line2": "2 56128  43.0034 173.2687 0001936 275.9426  84.1205 15.27572505171240"}, {"name": "STARLINK-6121", "line1": "1 56129U 23046AP  26127.28507447 -.00003098  00000+0 -10312-3 0  9994", "line2": "2 56129  42.9990 124.8424 0001537 275.4749  84.5927 15.27573757171752"}, {"name": "STARLINK-6117", "line1": "1 56130U 23046AQ  26127.42621214 -.00000319  00000+0 -20835-5 0  9997", "line2": "2 56130  43.0008 175.2302 0001110 273.8264  86.2461 15.27574406171183"}, {"name": "STARLINK-6120", "line1": "1 56131U 23046AR  26127.82625335  .00001078  00000+0  48709-4 0  9990", "line2": "2 56131  43.0018 173.0674 0001222 279.7233  80.3481 15.27578514171246"}, {"name": "STARLINK-6071", "line1": "1 56132U 23046AS  26127.53514063  .00000542  00000+0  29231-4 0  9998", "line2": "2 56132  43.0025 174.3306 0002252 276.9756  83.0840 15.27579595171209"}, {"name": "STARLINK-5566", "line1": "1 56133U 23046AT  26127.60566524 -.00000785  00000+0 -18992-4 0  9999", "line2": "2 56133  43.0039 173.9931 0001831 269.8300  90.2342 15.27573646171211"}, {"name": "STARLINK-5564", "line1": "1 56134U 23046AU  26127.53899394  .00000836  00000+0  39897-4 0  9998", "line2": "2 56134  43.0032 174.3538 0001271 268.1071  91.9635 15.27577731171197"}, {"name": "STARLINK-5489", "line1": "1 56136U 23046AW  26127.61080931  .00000121  00000+0  13933-4 0  9998", "line2": "2 56136  43.0022 174.0329 0001269 271.9467  88.1240 15.27572481171211"}, {"name": "STARLINK-5090", "line1": "1 56137U 23046AX  26127.42364182 -.00000413  00000+0 -55002-5 0  9991", "line2": "2 56137  43.0015 175.2014 0001064 269.2147  90.8582 15.27574401171185"}, {"name": "STARLINK-4774", "line1": "1 56138U 23046AY  26127.83652409 -.00000211  00000+0  18538-5 0  9997", "line2": "2 56138  43.0015 173.1390 0001246 261.9895  98.0816 15.27576013171249"}, {"name": "STARLINK-5375", "line1": "1 56140U 23046BA  26127.85065408  .00000959  00000+0  44388-4 0  9998", "line2": "2 56140  43.0043 173.2468 0001737 270.7027  89.3626 15.27574839171246"}, {"name": "STARLINK-5377", "line1": "1 56141U 23046BB  26127.62366238  .00002196  00000+0  89353-4 0  9995", "line2": "2 56141  43.0015 174.1247 0000709 267.2645  92.8125 15.27559538171215"}, {"name": "STARLINK-5376", "line1": "1 56142U 23046BC  26127.60181165  .00000737  00000+0  36297-4 0  9996", "line2": "2 56142  43.0028 173.9685 0001393 282.4537  77.6159 15.27583610171218"}, {"name": "STARLINK-5016", "line1": "1 56143U 23046BD  26127.52880329  .00004283  00000+0  23184-3 0  9996", "line2": "2 56143  42.9975 180.2468 0001211 306.5753  53.4983 15.15829554171130"}, {"name": "STARLINK-5374", "line1": "1 56144U 23046BE  26127.48517488 -.00000053  00000+0  76050-5 0  9999", "line2": "2 56144  43.0023 174.8019 0001402 267.7740  92.2951 15.27575683171190"}, {"name": "STARLINK-5111", "line1": "1 56146U 23046BG  26127.82234797 -.00000138  00000+0  45345-5 0  9995", "line2": "2 56146  43.0021 173.0298 0001306 273.1404  86.9298 15.26743799171245"}, {"name": "STARLINK-5140", "line1": "1 56147U 23046BH  26127.74738023 -.00001536  00000+0 -46304-4 0  9997", "line2": "2 56147  43.0033 136.8100 0001623 277.2292  82.8375 15.27573368171650"}, {"name": "STARLINK-5089", "line1": "1 56148U 23046BJ  26127.73883484 -.00001495  00000+0 -46062-4 0  9994", "line2": "2 56148  43.0031 136.7531 0001080 269.2055  90.8672 15.26746042171650"}, {"name": "STARLINK-30107", "line1": "1 56287U 23056B   26127.96320230  .00009923  00000+0  36959-3 0  9994", "line2": "2 56287  43.0028 216.4102 0001455 264.6559  95.4127 15.27585045169360"}, {"name": "STARLINK-30106", "line1": "1 56288U 23056C   26127.69033475  .00001349  00000+0  58573-4 0  9998", "line2": "2 56288  43.0068 235.7008 0002421 262.6707  97.3870 15.27572257169065"}, {"name": "STARLINK-30095", "line1": "1 56289U 23056D   26127.90883483  .00004058  00000+0  15697-3 0  9994", "line2": "2 56289  43.0025 208.5968 0001619 267.5049  92.5617 15.27564542169393"}, {"name": "STARLINK-30103", "line1": "1 56290U 23056E   26127.75958016  .00001183  00000+0  52508-4 0  9993", "line2": "2 56290  43.0042 235.3518 0001850 267.2190  92.8450 15.27581525169077"}, {"name": "STARLINK-30113", "line1": "1 56291U 23056F   26127.68647604  .00000373  00000+0  23075-4 0  9991", "line2": "2 56291  43.0016 235.6632 0000938 249.6532 110.4219 15.27585010169061"}, {"name": "STARLINK-30098", "line1": "1 56292U 23056G   26127.69804480 -.00000604  00000+0 -12434-4 0  9996", "line2": "2 56292  43.0015 235.7352 0001274 241.6337 118.4387 15.27582554169064"}, {"name": "STARLINK-30049", "line1": "1 56294U 23056J   26127.58141234  .00008927  00000+0  33366-3 0  9997", "line2": "2 56294  42.9995 236.5204 0001611 259.6529 100.4141 15.27567347169043"}, {"name": "STARLINK-30083", "line1": "1 56295U 23056K   26127.63457359 -.00004085  00000+0 -13896-3 0  9991", "line2": "2 56295  43.0010 210.8169 0001282 277.8108  82.2598 15.27587988169336"}, {"name": "STARLINK-30089", "line1": "1 56296U 23056L   26127.51716535 -.00002222  00000+0 -71266-4 0  9990", "line2": "2 56296  43.0029 196.9079 0001395 244.5579 115.5129 15.27565344169498"}, {"name": "STARLINK-30086", "line1": "1 56297U 23056M   26127.57626776  .00003854  00000+0  14962-3 0  9993", "line2": "2 56297  43.0024 236.4711 0000921 252.2426 107.8325 15.27555746169046"}, {"name": "STARLINK-30109", "line1": "1 56298U 23056N   26127.35439548 -.00013534  00000+0 -48242-3 0  9995", "line2": "2 56298  43.0019 237.3975 0001423 228.2449 131.8282 15.27631979169074"}, {"name": "STARLINK-30108", "line1": "1 56299U 23056P   26127.96474837  .00015947  00000+0  58817-3 0  9990", "line2": "2 56299  43.0001 222.9554 0000870 237.3111 122.7657 15.27556787169293"}]